{
  "version": 1,
  "fetchedAt": "2026-06-20T14:26:57.371Z",
  "source": "celestrak-gp",
  "counts": {
    "station": 24,
    "satellite": 520,
    "debris": 250
  },
  "objects": [
    {
      "id": "40315",
      "name": "COSMOS 2501 (702K)",
      "noradId": 40315,
      "line1": "1 40315U 14075A   26171.11625181  .00000063  00000+0  00000+0 0  9999",
      "line2": "2 40315  63.6165 190.2706 0022633 212.5171 147.3840  2.13101226 89914",
      "category": "satellite"
    },
    {
      "id": "40534",
      "name": "GPS BIIF-9  (PRN 26)",
      "noradId": 40534,
      "line1": "1 40534U 15013A   26171.05406355  .00000035  00000+0  00000+0 0  9997",
      "line2": "2 40534  53.1677 204.0589 0109601  40.1558 320.7059  2.00551222 81885",
      "category": "satellite"
    },
    {
      "id": "40544",
      "name": "GSAT0203 (GALILEO 7)",
      "noradId": 40544,
      "line1": "1 40544U 15017A   26168.79938999 -.00000091  00000+0  00000+0 0  9996",
      "line2": "2 40544  56.7854 341.5787 0002098 276.4201  83.5494  1.70476090 69215",
      "category": "satellite"
    },
    {
      "id": "40545",
      "name": "GSAT0204 (GALILEO 8)",
      "noradId": 40545,
      "line1": "1 40545U 15017B   26170.22835249 -.00000094  00000+0  00000+0 0  9995",
      "line2": "2 40545  56.7938 341.5583 0001942 246.6758 113.2973  1.70475686 32286",
      "category": "satellite"
    },
    {
      "id": "40549",
      "name": "BEIDOU-3S IGSO-1S (C31)",
      "noradId": 40549,
      "line1": "1 40549U 15019A   26170.99557403 -.00000176  00000+0  00000+0 0  9999",
      "line2": "2 40549  49.1899 295.4270 0038863 191.0750 231.2891  1.00249609 41107",
      "category": "satellite"
    },
    {
      "id": "40730",
      "name": "GPS BIIF-10 (PRN 08)",
      "noradId": 40730,
      "line1": "1 40730U 15033A   26170.71402533 -.00000051  00000+0  00000+0 0  9992",
      "line2": "2 40730  53.9803 266.9823 0115094  30.2379 330.4622  2.00556101 80046",
      "category": "satellite"
    },
    {
      "id": "40748",
      "name": "BEIDOU-3S M2S (C58)",
      "noradId": 40748,
      "line1": "1 40748U 15037A   26170.47115793 -.00000084  00000+0  00000+0 0  9993",
      "line2": "2 40748  54.8690 301.9679 0008432 258.8961 101.0039  1.86231851 74165",
      "category": "satellite"
    },
    {
      "id": "40749",
      "name": "BEIDOU-3S M1S (C57)",
      "noradId": 40749,
      "line1": "1 40749U 15037B   26167.45695291 -.00000070  00000+0  00000+0 0  9999",
      "line2": "2 40749  54.8681 302.0590 0003448  61.6955 298.3263  1.86254753 74115",
      "category": "satellite"
    },
    {
      "id": "40889",
      "name": "GSAT0205 (GALILEO 9)",
      "noradId": 40889,
      "line1": "1 40889U 15045A   26144.30399159 -.00000014  00000+0  00000+0 0  9994",
      "line2": "2 40889  54.9357 222.4171 0006405 263.0112  96.9692  1.67409242 66562",
      "category": "satellite"
    },
    {
      "id": "40890",
      "name": "GSAT0206 (GALILEO 10)",
      "noradId": 40890,
      "line1": "1 40890U 15045B   26169.04387372  .00000032  00000+0  00000+0 0  9997",
      "line2": "2 40890  54.9444 221.5807 0001779 334.3054  25.7732  1.70473811 67050",
      "category": "satellite"
    },
    {
      "id": "40938",
      "name": "BEIDOU-3S IGSO-2S (C56)",
      "noradId": 40938,
      "line1": "1 40938U 15053A   26170.70984358 -.00000143  00000+0  00000+0 0  9995",
      "line2": "2 40938  49.2167 258.7515 0065583 192.2245 167.5336  1.00258902 39370",
      "category": "satellite"
    },
    {
      "id": "41019",
      "name": "GPS BIIF-11 (PRN 10)",
      "noradId": 41019,
      "line1": "1 41019U 15062A   26170.77000951 -.00000091  00000+0  00000+0 0  9993",
      "line2": "2 41019  56.9611  30.7115 0112009 231.0751 127.9690  2.00567013 77882",
      "category": "satellite"
    },
    {
      "id": "41028",
      "name": "GSAT-15 (GAGAN/PRN 139)",
      "noradId": 41028,
      "line1": "1 41028U 15065A   26171.05407052 -.00000263  00000+0  00000+0 0  9992",
      "line2": "2 41028   0.0623 264.3518 0004380 166.6119 310.2862  1.00272702 38826",
      "category": "satellite"
    },
    {
      "id": "41174",
      "name": "GSAT0209 (GALILEO 12)",
      "noradId": 41174,
      "line1": "1 41174U 15079A   26169.21194997 -.00000011  00000+0  00000+0 0  9996",
      "line2": "2 41174  55.8280 101.2339 0005250 345.1239  14.8344  1.70473656 64794",
      "category": "satellite"
    },
    {
      "id": "41175",
      "name": "GSAT0208 (GALILEO 11)",
      "noradId": 41175,
      "line1": "1 41175U 15079B   26170.60543083 -.00000012  00000+0  00000+0 0  9997",
      "line2": "2 41175  55.8273 101.1925 0004854 343.5334  16.4302  1.70473634 65232",
      "category": "satellite"
    },
    {
      "id": "41241",
      "name": "IRNSS-1E",
      "noradId": 41241,
      "line1": "1 41241U 16003A   26169.73041566 -.00000318  00000+0  00000+0 0  9999",
      "line2": "2 41241  33.2372  59.7280 0018940 178.9729  42.9724  1.00277463 38098",
      "category": "satellite"
    },
    {
      "id": "41328",
      "name": "GPS BIIF-12 (PRN 32)",
      "noradId": 41328,
      "line1": "1 41328U 16007A   26164.87780105 -.00000028  00000+0  00000+0 0  9996",
      "line2": "2 41328  55.5220  89.5909 0096120 247.4205 111.5460  2.00551861 75773",
      "category": "satellite"
    },
    {
      "id": "41330",
      "name": "COSMOS 2514 (751)",
      "noradId": 41330,
      "line1": "1 41330U 16008A   26170.63146802 -.00000059  00000+0  00000+0 0  9995",
      "line2": "2 41330  65.0201 312.9226 0011376 198.2261 161.7251  2.13102571 80675",
      "category": "satellite"
    },
    {
      "id": "41434",
      "name": "BEIDOU-2 IGSO-6 (C13)",
      "noradId": 41434,
      "line1": "1 41434U 16021A   26167.12386227 -.00000150  00000+0  00000+0 0  9994",
      "line2": "2 41434  60.2243  38.0497 0057184 231.4868 132.3999  1.00259474 37472",
      "category": "satellite"
    },
    {
      "id": "41469",
      "name": "IRNSS-1G",
      "noradId": 41469,
      "line1": "1 41469U 16027A   26171.27504292 -.00000342  00000+0  00000+0 0  9996",
      "line2": "2 41469   5.2047  97.4062 0007649 358.4603  41.0176  1.00258919 37214",
      "category": "satellite"
    },
    {
      "id": "41549",
      "name": "GSAT0211 (GALILEO 14)",
      "noradId": 41549,
      "line1": "1 41549U 16030A   26169.55617319  .00000029  00000+0  00000+0 0  9993",
      "line2": "2 41549  55.0948 221.6573 0002964 322.3705  37.6930  1.70473904 62691",
      "category": "satellite"
    },
    {
      "id": "41550",
      "name": "GSAT0210 (GALILEO 13)",
      "noradId": 41550,
      "line1": "1 41550U 16030B   26169.22686126  .00000031  00000+0  00000+0 0  9994",
      "line2": "2 41550  55.0944 221.6643 0005022 247.0655 112.9679  1.70473788 62688",
      "category": "satellite"
    },
    {
      "id": "41586",
      "name": "BEIDOU-2 G7 (C03)",
      "noradId": 41586,
      "line1": "1 41586U 16037A   26170.98615006 -.00000359  00000+0  00000+0 0  9998",
      "line2": "2 41586   1.7279  69.3466 0006467 357.9747 306.3915  1.00275081  6918",
      "category": "satellite"
    },
    {
      "id": "41589",
      "name": "EUTELSAT 117 WEST B (W*)",
      "noradId": 41589,
      "line1": "1 41589U 16038B   26171.27630992 -.00000017  00000+0  00000+0 0  9997",
      "line2": "2 41589   0.0119 154.2662 0000493 334.0752 122.6398  1.00272245 36694",
      "category": "satellite"
    },
    {
      "id": "41859",
      "name": "GSAT0207 (GALILEO 15)",
      "noradId": 41859,
      "line1": "1 41859U 16069A   26170.67835764 -.00000013  00000+0  00000+0 0  9994",
      "line2": "2 41859  55.5002 101.0173 0005217 330.9828  28.9678  1.70473648 59449",
      "category": "satellite"
    },
    {
      "id": "41860",
      "name": "GSAT0212 (GALILEO 16)",
      "noradId": 41860,
      "line1": "1 41860U 16069B   26169.94520460 -.00000012  00000+0  00000+0 0  9997",
      "line2": "2 41860  55.4975 101.0327 0004607   1.4092 358.5693  1.70473680 59686",
      "category": "satellite"
    },
    {
      "id": "41861",
      "name": "GSAT0213 (GALILEO 17)",
      "noradId": 41861,
      "line1": "1 41861U 16069C   26170.89901147 -.00000014  00000+0  00000+0 0  9991",
      "line2": "2 41861  55.5002 101.0142 0004814 312.9981  46.9417  1.70474134 59565",
      "category": "satellite"
    },
    {
      "id": "41862",
      "name": "GSAT0214 (GALILEO 18)",
      "noradId": 41862,
      "line1": "1 41862U 16069D   26169.87201710 -.00000012  00000+0  00000+0 0  9995",
      "line2": "2 41862  55.4996 101.0352 0004721 311.5610  48.3755  1.70473520 59672",
      "category": "satellite"
    },
    {
      "id": "42709",
      "name": "SES-15 (WAAS/PRN 133)",
      "noradId": 42709,
      "line1": "1 42709U 17026A   26171.27065080  .00000055  00000+0  00000+0 0  9991",
      "line2": "2 42709   0.0195 339.2017 0000434  78.4572 179.0837  1.00268891  7465",
      "category": "satellite"
    },
    {
      "id": "42738",
      "name": "QZS-2 (QZSS/PRN 194)",
      "noradId": 42738,
      "line1": "1 42738U 17028A   26170.47837747 -.00000184  00000+0  00000+0 0  9997",
      "line2": "2 42738  39.4240 243.1214 0758837 269.2922  69.3071  1.00283355  7645",
      "category": "satellite"
    },
    {
      "id": "42917",
      "name": "QZS-3 (QZSS/PRN 199)",
      "noradId": 42917,
      "line1": "1 42917U 17048A   26171.27460958 -.00000352  00000+0  00000+0 0  9990",
      "line2": "2 42917   0.0562 161.6436 0001982 282.4433  50.2662  1.00274737 32299",
      "category": "satellite"
    },
    {
      "id": "42939",
      "name": "COSMOS 2522 (752)",
      "noradId": 42939,
      "line1": "1 42939U 17055A   26169.06146248  .00000058  00000+0  00000+0 0  9991",
      "line2": "2 42939  64.0788 191.8550 0011120 242.4701 117.4658  2.13102224 67996",
      "category": "satellite"
    }
  ]
}